[{"OBJECT_NAME":"STARLINK-35784","OBJECT_ID":"2025-298U","EPOCH":"2026-03-09T22:31:12.185472","MEAN_MOTION":14.99157284,"ECCENTRICITY":0.00025226,"INCLINATION":70.0036,"RA_OF_ASC_NODE":13.8718,"ARG_OF_PERICENTER":255.9225,"MEAN_ANOMALY":104.1654,"EPHEMERIS_TYPE":0,"CLASSIFICATION_TYPE":"U","NORAD_CAT_ID":67093,"ELEMENT_SET_NO":999,"REV_AT_EPOCH":1325,"BSTAR":0.00048528132,"MEAN_MOTION_DOT":5.827e-5,"MEAN_MOTION_DDOT":0},{"OBJECT_NAME":"FENGYUN 1C DEB","OBJECT_ID":"1999-025EA","EPOCH":"2026-03-09T21:25:08.488704","MEAN_MOTION":14.56795996,"ECCENTRICITY":0.01928778,"INCLINATION":98.8218,"RA_OF_ASC_NODE":190.418,"ARG_OF_PERICENTER":17.5828,"MEAN_ANOMALY":343.1923,"EPHEMERIS_TYPE":0,"CLASSIFICATION_TYPE":"U","NORAD_CAT_ID":29832,"ELEMENT_SET_NO":999,"REV_AT_EPOCH":1524,"BSTAR":0.00013032505,"MEAN_MOTION_DOT":6.87e-6,"MEAN_MOTION_DDOT":0}]
